ONEWEB-0424             
1 50497U 21132AE  23322.49786322  .00000051  00000+0  95704-4 0  9991
2 50497  87.9223 162.7874 0001585 103.4881 256.6428 13.18687460 97538
ONEWEB-0426             
1 50498U 21132AF  23322.53580116  .00000048  00000+0  89407-4 0  9999
2 50498  87.9221 162.8053 0002277  79.9360 280.2029 13.18684187 97482
ONEWEB-0427             
1 50499U 21132AG  23322.79925107  .00000063  00000+0  12591-3 0  9997
2 50499  87.9222 162.7278 0001825  87.3282 272.8059 13.18688837 98843
ONEWEB-0429             
1 50500U 21132AH  23322.86250674  .00000133  00000+0  30484-3 0  9997
2 50500  87.9207 162.7170 0001472  82.0375 278.0924 13.18683266 98810
ONEWEB-0430             
1 50501U 21132AJ  23322.85195598  .00000070  00000+0  14473-3 0  9990
2 50501  87.9224 162.7222 0001517  89.1567 270.9739 13.18682161 98851
ONEWEB-0432             
1 50502U 21132AK  23322.80769424  .00000027  00000+0  36762-4 0  9999
2 50502  87.9220 162.7265 0001541  86.1171 274.0137 13.18686825 98814
ONEWEB-0440             
1 50503U 21132AL  23322.49153284 -.00000004  00000+0 -43996-4 0  9990
2 50503  87.9146 162.7857 0001686  59.8845 300.2454 13.18687873 97462
ONEWEB-0450             
1 50504U 21132AM  23322.48523434 -.00000059  00000+0 -18296-3 0  9992
2 50504  87.9188 162.8139 0001170  81.2807 278.8457 13.18687072 97495
